GSAT0101 (PRN E11)      
1 37846U 11060A   20267.49833293 -.00000072  00000-0  00000-0 0  9994
2 37846  56.6910  38.5926 0001002  35.5442 324.4582  1.70475254 55447
GSAT0102 (PRN E12)      
1 37847U 11060B   20266.84058699 -.00000070  00000-0  00000-0 0  9990
2 37847  56.6915  38.6101 0001885 307.1497  55.2977  1.70475360 55564
GSAT0103 (PRN E19)      
1 38857U 12055A   20266.95380310 -.00000014  00000-0  00000-0 0  9995
2 38857  54.9909 159.0985 0002281 271.6914  88.3507  1.70473765 49474
GSAT0104 (PRN E20)      
1 38858U 12055B   20265.71502829 -.00000003  00000-0  00000-0 0  9998
2 38858  54.9913 159.1321 0001252 293.9354  66.1249  1.70473726 49459
GSAT0201 (PRN E18)      
1 40128U 14050A   20267.49949401 -.00000115  00000-0  00000-0 0  9990
2 40128  50.5533 357.4641 1659460 102.5967 276.3878  1.85519140 39523
GSAT0202 (PRN E14)      
1 40129U 14050B   20267.22385966 -.00000114  00000-0  00000+0 0  9990
2 40129  50.5889 356.5149 1657214 103.4041 275.5269  1.85519809 41620
GSAT0203 (PRN E26)      
1 40544U 15017A   20267.27943736 -.00000071  00000-0  00000+0 0  9997
2 40544  56.4845  38.7190 0003418 219.7794 140.1915  1.70474953 34181
GSAT0204 (PRN E22)      
1 40545U 15017B   20266.47388378 -.00000069  00000-0  00000-0 0  9992
2 40545  56.4904  38.7572 0003315 175.2096 184.7890  1.70475085 34171
GSAT0205 (PRN E24)      
1 40889U 15045A   20267.30270124  .00000014  00000-0  00000-0 0  9995
2 40889  56.0788 279.4055 0003418 332.3210  27.6852  1.70475013 31335
GSAT0206 (PRN E30)      
1 40890U 15045B   20266.34908928  .00000013  00000-0  00000-0 0  9999
2 40890  56.0784 279.4283 0002816 301.3714  58.6241  1.70474966 31345
GSAT0209 (PRN E09)      
1 41174U 15079A   20267.10906669 -.00000015  00000-0  00000-0 0  9990
2 41174  55.0056 158.7928 0003990 326.6461  33.3967  1.70472814 29678
GSAT0208 (PRN E08)      
1 41175U 15079B   20266.74221897 -.00000012  00000-0  00000+0 0  9999
2 41175  55.0039 158.8023 0003243 331.4270  28.6248  1.70472812 29677
GSAT0211 (PRN E02)      
1 41549U 16030A   20266.86354788  .00000014  00000-0  00000-0 0  9993
2 41549  56.2203 279.2805 0004791 291.4180  68.5544  1.70474772 26988
GSAT0210 (PRN E01)      
1 41550U 16030B   20267.15643624  .00000015  00000-0  00000-0 0  9999
2 41550  56.2202 279.2741 0004912 267.4862  92.4816  1.70474764 26982
GSAT0207 (PRN E07)      
1 41859U 16069A   20266.81531196 -.00000013  00000-0  00000-0 0  9994
2 41859  54.6641 159.1392 0003600 311.9293  48.1086  1.70472762 23875
GSAT0212 (PRN E03)      
1 41860U 16069B   20266.66876152 -.00000012  00000-0  00000-0 0  9992
2 41860  54.6619 159.1421 0003186 342.8732  17.1853  1.70472742 23961
GSAT0213 (PRN E04)      
1 41861U 16069C   20265.86136089 -.00000005  00000-0  00000-0 0  9994
2 41861  54.6637 159.1687 0002596 285.6592  74.3848  1.70472974 23953
GSAT0214 (PRN E05)      
1 41862U 16069D   20266.00840869 -.00000006  00000-0  00000+0 0  9990
2 41862  54.6625 159.1598 0001915 299.2510  60.8020  1.70472800 23946
GSAT0215 (PRN E21)      
1 43055U 17079A   20267.08474099  .00000015  00000-0  00000-0 0  9995
2 43055  56.1955 279.1166 0004312 262.2960  97.6786  1.70473909 17303
GSAT0216 (PRN E25)      
1 43056U 17079B   20266.79084617  .00000014  00000-0  00000-0 0  9995
2 43056  56.1958 279.1242 0006134 266.2228  93.7301  1.70474025 17318
GSAT0217 (PRN E27)      
1 43057U 17079C   20267.59750080  .00000015  00000-0  00000-0 0  9990
2 43057  56.1936 279.1026 0005571 274.4312  85.5298  1.70474065 17312
GSAT0218 (PRN E31)      
1 43058U 17079D   20267.23091748  .00000015  00000-0  00000-0 0  9991
2 43058  56.1940 279.1101 0006622 264.0829  95.8655  1.70473999 17336
GSAT0221 (PRN E15)      
1 43564U 18060A   20265.37071818 -.00000066  00000-0  00000-0 0  9990
2 43564  56.8704  38.4238 0003297 246.0771 113.8824  1.70475951 13459
GSAT0222 (PRN E33)      
1 43565U 18060B   20267.35032019 -.00000071  00000-0  00000+0 0  9996
2 43565  56.8736  38.3692 0002780 253.8211 106.1440  1.70476005 13538
GSAT0219 (PRN E36)      
1 43566U 18060C   20266.98407043 -.00000070  00000-0  00000-0 0  9998
2 43566  56.8737  38.3810 0002710 243.5564 116.4114  1.70475855 13503
GSAT0220 (PRN E13)      
1 43567U 18060D   20266.61737135 -.00000069  00000-0  00000-0 0  9995
2 43567  56.8736  38.3909 0002721 245.2827 114.6843  1.70475666 13481
